NORAD_CAT_ID,OBJECT_NAME,OBJECT_TYPE,EPOCH,MEAN_MOTION,ECCENTRICITY,INCLINATION,RA_OF_ASC_NODE,ARG_OF_PERICENTER,MEAN_ANOMALY,BSTAR,MEAN_MOTION_DOT,MEAN_MOTION_DDOT,TLE_LINE0,TLE_LINE1,TLE_LINE2,SEMIMAJOR_AXIS,PERIOD,APOGEE,PERIGEE,DECAYED
52121.0,STARLINK-3678,PAYLOAD,2022-06-09 14:00:01,15.44046039,0.0001167,53.2174,98.2447,69.7483,262.1202,-0.016825,-0.0072149,0.0,0 STARLINK-3678,1 52121U 22029AK  22160.58334491 -.00721490  00000-0 -16825-1 0  9992,2 52121  53.2174  98.2447 0001167  69.7483 262.1202 15.44046039  1306,6812.32,93.261,434.98,433.39,0.0
52121.0,STARLINK-3678,PAYLOAD,2022-06-09 22:00:00,15.43536803,0.000121,53.2175,96.6644,62.8917,322.563,-0.017141,-0.00722341,0.0,0 STARLINK-3678,1 52121U 22029AK  22160.91667824 -.00722341  00000-0 -17141-1 0  9996,2 52121  53.2175  96.6644 0001210  62.8917 322.5630 15.43536803  1301,6813.818,93.292,436.507,434.858,0.0
52121.0,STARLINK-3678,PAYLOAD,2022-06-10 00:00:00,15.43407085,0.0001372,53.2173,96.2701,57.6318,71.1244,-0.01713,-0.00718995,0.0,0 STARLINK-3678,1 52121U 22029AK  22161.00001157 -.00718995  00000-0 -17130-1 0  9996,2 52121  53.2173  96.2701 0001372  57.6318  71.1244 15.43407085 14250,6814.2,93.3,436.999,435.13,0.0
52121.0,STARLINK-3678,PAYLOAD,2022-06-10 14:00:01,15.42514086,0.0001296999999999,53.2173,93.5066,60.9967,69.794,-0.017622,-0.00717706,0.0,0 STARLINK-3678,1 52121U 22029AK  22161.58334491 -.00717706  00000-0 -17622-1 0  9994,2 52121  53.2173  93.5066 0001297  60.9967  69.7940 15.42514086  1304,6816.829000000002,93.354,439.578,437.81,0.0
52121.0,STARLINK-3678,PAYLOAD,2022-06-10 22:00:00,15.42004442,0.0001413,53.2174,91.9299,63.5301,119.0085,-0.017942,-0.0071827,0.0,0 STARLINK-3678,1 52121U 22029AK  22161.91667824 -.00718270  00000-0 -17942-1 0  9992,2 52121  53.2174  91.9299 0001413  63.5301 119.0085 15.42004442  1305,6818.331,93.385,441.16,439.233,0.0
52121.0,STARLINK-3678,PAYLOAD,2022-06-11 06:00:00,15.41491447,0.0001343,53.2173,90.3558,70.7873,162.8867,-0.018095,-0.00712472,0.0,0 STARLINK-3678,1 52121U 22029AK  22162.25001157 -.00712472  00000-0 -18095-1 0  9999,2 52121  53.2173  90.3558 0001343  70.7873 162.8867 15.41491447 14448,6819.844,93.416,442.625,440.793,0.0
52121.0,STARLINK-3678,PAYLOAD,2022-06-11 22:00:00,15.4047573,0.0001249,53.2175,87.2068,64.3964,269.7095,-0.018931,-0.0071991,0.0,0 STARLINK-3678,1 52121U 22029AK  22162.91667824 -.00719910  00000-0 -18931-1 0  9994,2 52121  53.2175  87.2068 0001249  64.3964 269.7095 15.40475730  1303,6822.840999999999,93.478,445.5580000000001,443.854,0.0
52121.0,STARLINK-3678,PAYLOAD,2022-06-12 06:00:02,15.39963706,0.0001162,53.2173,85.6362,63.6978,319.7692,-0.019139,-0.00715853,0.0,0 STARLINK-3678,1 52121U 22029AK  22163.25002315 -.00715853  00000-0 -19139-1 0  9993,2 52121  53.2173  85.6362 0001162  63.6978 319.7692 15.39963706 14600,6824.354,93.509,447.012,445.426,0.0
52121.0,STARLINK-3678,PAYLOAD,2022-06-12 14:00:01,15.39453999,0.000127,53.2175,84.0636,54.5135,17.575,-0.019506,-0.00717269,0.0,0 STARLINK-3678,1 52121U 22029AK  22163.58334491 -.00717269  00000-0 -19506-1 0  9993,2 52121  53.2175  84.0636 0001270  54.5135  17.5750 15.39453999  1302,6825.86,93.54,448.592,446.858,0.0
52121.0,STARLINK-3678,PAYLOAD,2022-06-12 22:00:00,15.38945351,0.0001395999999999,53.2175,82.4947,57.5377,62.6213,-0.019896,-0.00719287,0.0,0 STARLINK-3678,1 52121U 22029AK  22163.91667824 -.00719287  00000-0 -19896-1 0  9993,2 52121  53.2175  82.4947 0001396  57.5377  62.6213 15.38945351  1301,6827.364000000001,93.571,450.182,448.276,0.0
52121.0,STARLINK-3678,PAYLOAD,2022-06-13 06:00:02,15.38432234,0.0001361999999999,53.2172,80.9274,65.3115,102.3707,-0.020052,-0.0071327,0.0,0 STARLINK-3678,1 52121U 22029AK  22164.25002315 -.00713270  00000-0 -20052-1 0  9991,2 52121  53.2172  80.9274 0001362  65.3115 102.3707 15.38432234 14758,6828.882,93.602,451.677,449.817,0.0
52121.0,STARLINK-3678,PAYLOAD,2022-06-13 14:00:01,15.379235500000002,0.0001469,53.2174,79.3583,56.132,158.3328,-0.020461,-0.00715611,0.0,0 STARLINK-3678,1 52121U 22029AK  22164.58334491 -.00715611  00000-0 -20461-1 0  9995,2 52121  53.2174  79.3583 0001469  56.1320 158.3328 15.37923550  1301,6830.388000000001,93.633,453.256,451.249,0.0
52121.0,STARLINK-3678,PAYLOAD,2022-06-13 22:00:00,15.37414175,0.0001515,53.2176,77.7934,55.2556,205.4414,-0.020835,-0.00716593,0.0,0 STARLINK-3678,1 52121U 22029AK  22164.91667824 -.00716593  00000-0 -20835-1 0  9996,2 52121  53.2176  77.7934 0001515  55.2556 205.4414 15.37414175  1306,6831.896,93.664,454.796,452.726,0.0
52121.0,STARLINK-3678,PAYLOAD,2022-06-14 06:00:00,15.36904599,0.0001424,53.2173,76.2296,51.1971,255.1193,-0.021174,-0.0071628,0.0,0 STARLINK-3678,1 52121U 22029AK  22165.25001157 -.00716280  00000-0 -21174-1 0  9995,2 52121  53.2173  76.2296 0001424  51.1971 255.1193 15.36904599 14902,6833.406,93.695,456.244,454.298,0.0
52121.0,STARLINK-3678,PAYLOAD,2022-06-14 14:00:01,15.3639296,0.0001139,53.2174,74.6643,74.3449,276.9813,-0.021483,-0.00714841,0.0,0 STARLINK-3678,1 52121U 22029AK  22165.58334491 -.00714841  00000-0 -21483-1 0  9995,2 52121  53.2174  74.6643 0001139  74.3449 276.9813 15.36392960  1304,6834.9230000000025,93.726,457.567,456.01,0.0
52121.0,STARLINK-3678,PAYLOAD,2022-06-14 22:00:00,15.35885808,0.0001431999999999,53.2177,73.1032,47.9494,347.7696,-0.021983,-0.0071926,0.0,0 STARLINK-3678,1 52121U 22029AK  22165.91667824 -.00719260  00000-0 -21983-1 0  9996,2 52121  53.2177  73.1032 0001432  47.9494 347.7696 15.35885808  1308,6836.428000000001,93.757,459.272,457.314,0.0
52121.0,STARLINK-3678,PAYLOAD,2022-06-15 06:00:00,15.35374706,0.000128,53.2171,71.5428,58.0457,21.455,-0.022248,-0.00716257,0.0,0 STARLINK-3678,1 52121U 22029AK  22166.25001157 -.00716257  00000-0 -22248-1 0  9993,2 52121  53.2171  71.5428 0001280  58.0457  21.4550 15.35374706 15069,6837.945,93.788,460.685,458.934,0.0
52121.0,STARLINK-3678,PAYLOAD,2022-06-15 14:00:01,15.34864303,0.0001347,53.2173,69.9812,57.5172,65.1543,-0.022639,-0.00716943,0.0,0 STARLINK-3678,1 52121U 22029AK  22166.58334491 -.00716943  00000-0 -22639-1 0  9995,2 52121  53.2173  69.9812 0001347  57.5172  65.1543 15.34864303  1306,6839.4609999999975,93.819,462.247,460.404,0.0
52121.0,STARLINK-3678,PAYLOAD,2022-06-15 22:00:00,15.34353494,0.0001639,53.2174,68.4236,48.6434,116.5841,-0.022954,-0.007153,0.0,0 STARLINK-3678,1 52121U 22029AK  22166.91667824 -.00715300  00000-0 -22954-1 0  9997,2 52121  53.2174  68.4236 0001639  48.6434 116.5841 15.34353494  1303,6840.978,93.851,463.965,461.722,0.0
52121.0,STARLINK-3678,PAYLOAD,2022-06-16 02:00:01,15.34101625,0.0001248,53.2175,67.6456,64.876,301.398,-0.023309,-0.00720092,0.0,0 STARLINK-3678,1 52121U 22029AK  22167.08334491 -.00720092  00000-0 -23309-1 0  9996,2 52121  53.2175  67.6456 0001248  64.8760 301.3980 15.34101625  1302,6841.727,93.866,464.446,462.73800000000006,0.0
52121.0,STARLINK-3678,PAYLOAD,2022-06-19 14:00:01,15.28745115,0.0001493,53.2171,51.3564,59.5419,173.3623,-0.027473,-0.00725951,0.0,0 STARLINK-3678,1 52121U 22029AK  22170.58334491 -.00725951  00000-0 -27473-1 0  9990,2 52121  53.2171  51.3564 0001493  59.5419 173.3623 15.28745115  1304,6857.7,94.195,480.588,478.541,0.0
52121.0,STARLINK-3678,PAYLOAD,2022-06-19 20:00:01,15.28361496,0.0001559,53.2173,50.1995,56.4968,112.8665,-0.027689,-0.00723262,0.0,0 STARLINK-3678,1 52121U 22029AK  22170.83334491 -.00723262  00000-0 -27689-1 0  9990,2 52121  53.2173  50.1995 0001559  56.4968 112.8665 15.28361496 15764,6858.847,94.219,481.781,479.643,0.0
52121.0,STARLINK-3678,PAYLOAD,2022-06-19 22:00:00,15.28233521,0.0001503,53.2172,49.8141,60.2078,207.8987,-0.027767,-0.00722497,0.0,0 STARLINK-3678,1 52121U 22029AK  22170.91667824 -.00722497  00000-0 -27767-1 0  9994,2 52121  53.2172  49.8141 0001503  60.2078 207.8987 15.28233521  1309,6859.23,94.226,482.126,480.064,0.0
52121.0,STARLINK-3678,PAYLOAD,2022-06-20 14:00:01,15.27212903,0.0001281,53.2172,46.7275,64.7532,271.9221,-0.02862,-0.00721784,0.0,0 STARLINK-3678,1 52121U 22029AK  22171.58334491 -.00721784  00000-0 -28620-1 0  9996,2 52121  53.2172  46.7275 0001281  64.7532 271.9221 15.27212903  1303,6862.286,94.289,485.03,483.271,0.0
52121.0,STARLINK-3678,PAYLOAD,2022-06-20 22:00:00,15.26705953,0.0001473,53.2173,45.1887,50.444,319.5935,-0.029256,-0.00726211,0.0,0 STARLINK-3678,1 52121U 22029AK  22171.91667824 -.00726211  00000-0 -29256-1 0  9998,2 52121  53.2173  45.1887 0001473  50.4440 319.5935 15.26705953 15935,6863.805,94.321,486.681,484.659,0.0
52121.0,STARLINK-3678,PAYLOAD,2022-06-21 14:00:01,15.25684115,0.000139,53.2173,42.1092,55.68,19.2503,-0.030054,-0.00723416,0.0,0 STARLINK-3678,1 52121U 22029AK  22172.58334491 -.00723416  00000-0 -30054-1 0  9995,2 52121  53.2173  42.1092 0001390  55.6800  19.2503 15.25684115  1301,6866.869000000002,94.384,489.68800000000016,487.779,0.0
52121.0,STARLINK-3678,PAYLOAD,2022-06-21 22:00:00,15.25176041,0.0001704,53.2173,40.5742,44.2744,62.1799,-0.030644,-0.00726218,0.0,0 STARLINK-3678,1 52121U 22029AK  22172.91667824 -.00726218  00000-0 -30644-1 0  9999,2 52121  53.2173  40.5742 0001704  44.2744  62.1799 15.25176041  1303,6868.394,94.415,491.429,489.088,0.0
52121.0,STARLINK-3678,PAYLOAD,2022-06-22 00:00:02,15.25046732,0.000175,53.2174,40.1903,48.5513,155.7528,-0.030602,-0.00722657,0.0,0 STARLINK-3678,1 52121U 22029AK  22173.00002315 -.00722657  00000-0 -30602-1 0  9995,2 52121  53.2174  40.1903 0001750  48.5513 155.7528 15.25046732 16095,6868.781999999997,94.423,491.849,489.445,0.0
52121.0,STARLINK-3678,PAYLOAD,2022-06-22 14:00:01,15.24155503,0.00016,53.2173,37.5019,52.4161,115.2535,-0.031551,-0.00725165,0.0,0 STARLINK-3678,1 52121U 22029AK  22173.58334491 -.00725165  00000-0 -31551-1 0  9992,2 52121  53.2173  37.5019 0001600  52.4161 115.2535 15.24155503  1302,6871.459,94.479,494.424,492.225,0.0
